JY1SAT (JO-97)          
1 43803U 18099AX  26068.68634132  .00017774  00000+0  60804-3 0  9996
2 43803  97.4249 131.3625 0004723 256.6795 103.3919 15.30302628398390
STARLINK-33936          
1 64005U 25101M   26068.14697958  .00039271  00000+0  14286-2 0  9999
2 64005  43.0037   0.9080 0001447 286.5421  73.5271 15.27589114 46979
